ONEWEB-0298             
1 49087U 21075N   23353.56561041  .00000056  00000+0  11110-3 0  9994
2 49087  87.9215 186.9226 0001616  76.3024 283.8287 13.17502381113703
ONEWEB-0299             
1 49088U 21075P   23353.56742345  .00000052  00000+0  10191-3 0  9997
2 49088  87.9196 186.9013 0001714  74.7636 285.3685 13.17599875113686
ONEWEB-0300             
1 49089U 21075Q   23354.06091549 -.00000262  00000+0 -76429-3 0  9998
2 49089  87.8994 171.7095 0001213  85.7329 274.3938 13.12444234116819
ONEWEB-0301             
1 49090U 21075R   23353.51136274  .00000081  00000+0  19038-3 0  9994
2 49090  87.8994 171.8205 0001214 100.3897 259.7369 13.12441600115111
ONEWEB-0302             
1 49091U 21075S   23354.03234824  .00000443  00000+0  11966-2 0  9996
2 49091  87.8995 171.7140 0001784  88.5042 271.6291 13.12443631116160
ONEWEB-0304             
1 49092U 21075T   23353.61896703  .00001974  00000+0  50248-2 0  9996
2 49092  87.9190 186.9005 0001767  85.6424 274.4909 13.17994797114647
ONEWEB-0305             
1 49093U 21075U   23353.60991291  .00000066  00000+0  13837-3 0  9999
2 49093  87.9197 186.8935 0001838  72.8188 287.3144 13.17502077113694
ONEWEB-0308             
1 49094U 21075V   23354.02596504  .00000513  00000+0  13905-2 0  9997
2 49094  87.8993 171.7166 0001406  92.6565 267.4724 13.12444361116172
